{"type": "FeatureCollection", "features": [ {"type": "Feature", "properties": {"norad_id": 38169, "name": "FENGYUN 1C DEB", "group": "fengyun-1c-debris", "lat": -45.422461495485784, "lon": -29.03819502488402, "alt_km": 670.7358245404903, "timestamp": "2025-12-13T10:41:26.056071+00:00", "meta": {"OBJECT_NAME": "FENGYUN 1C DEB", "OBJECT_ID": "1999-025ERS", "EPOCH": "2025-11-22T03:51:43.920000", "MEAN_MOTION": 14.70462609, "ECCENTRICITY": 0.00311315, "INCLINATION": 98.9783, "RA_OF_ASC_NODE": 298.2991, "ARG_OF_PERICENTER": 127.7379, "MEAN_ANOMALY": 232.6652, "EPHEMERIS_TYPE": 0, "CLASSIFICATION_TYPE": "U", "NORAD_CAT_ID": 38169, "ELEMENT_SET_NO": 999, "REV_AT_EPOCH": 60966, "BSTAR": 0.0026738914, "MEAN_MOTION_DOT": 0.00016302, "MEAN_MOTION_DDOT": 0}, "tle": {"line1": "1 38169U 99025ERS 25326.16092500  .00016302  00000+0  26739-2 0  9993", "line2": "2 38169  98.9783 298.2991 0031131 127.7379 232.6652 14.70462609609660"}}, "geometry": {"type": "Point", "coordinates": [-29.03819502488402, -45.422461495485784]}}, {"type": "Feature", "properties": {"norad_id": 38173, "name": "FENGYUN 1C DEB", "group": "fengyun-1c-debris", "lat": -9.727880879618107, "lon": 66.13841120994609, "alt_km": 748.3301068278197, "timestamp": "2025-12-13T10:41:26.056081+00:00", "meta": {"OBJECT_NAME": "FENGYUN 1C DEB", "OBJECT_ID": "1999-025ERW", "EPOCH": "2025-12-08T11:11:29.864832", "MEAN_MOTION": 14.37138135, "ECCENTRICITY": 0.01627901, "INCLINATION": 98.9997, "RA_OF_ASC_NODE": 242.4873, "ARG_OF_PERICENTER": 125.1423, "MEAN_ANOMALY": 236.5139, "EPHEMERIS_TYPE": 0, "CLASSIFICATION_TYPE": "U", "NORAD_CAT_ID": 38173, "ELEMENT_SET_NO": 999, "REV_AT_EPOCH": 60582, "BSTAR": 0.0013067614, "MEAN_MOTION_DOT": 4.475e-05, "MEAN_MOTION_DDOT": 0}, "tle": {"line1": "1 38173U 99025ERW 25342.46631788  .00004475  00000+0  13068-2 0  9995", "line2": "2 38173  98.9997 242.4873 0162790 125.1423 236.5139 14.37138135605824"}}, "geometry": {"type": "Point", "coordinates": [66.13841120994609, -9.727880879618107]}}, {"type": "Feature", "properties": {"norad_id": 38493, "name": "FENGYUN 1C DEB", "group": "fengyun-1c-debris", "lat": -17.280798124245607, "lon": 123.94763798131767, "alt_km": 805.9668903328075, "timestamp": "2025-12-13T10:41:26.056091+00:00", "meta": {"OBJECT_NAME": "FENGYUN 1C DEB", "OBJECT_ID": "1999-025ESC", "EPOCH": "2025-12-09T03:27:05.450976", "MEAN_MOTION": 13.62312269, "ECCENTRICITY": 0.04263958, "INCLINATION": 99.0791, "RA_OF_ASC_NODE": 302.7798, "ARG_OF_PERICENTER": 254.5612, "MEAN_ANOMALY": 100.8062, "EPHEMERIS_TYPE": 0, "CLASSIFICATION_TYPE": "U", "NORAD_CAT_ID": 38493, "ELEMENT_SET_NO": 999, "REV_AT_EPOCH": 56449, "BSTAR": 0.00054902893, "MEAN_MOTION_DOT": 7.4e-06, "MEAN_MOTION_DDOT": 0}, "tle": {"line1": "1 38493U 99025ESC 25343.14381309  .00000740  00000+0  54903-3 0  9992", "line2": "2 38493  99.0791 302.7798 0426395 254.5612 100.8062 13.62312269564494"}}, "geometry": {"type": "Point", "coordinates": [123.94763798131767, -17.280798124245607]}}, {"type": "Feature", "properties": {"norad_id": 38494, "name": "FENGYUN 1C DEB", "group": "fengyun-1c-debris", "lat": -47.80071602105479, "lon": -52.985159235934304, "alt_km": 733.1961869911775, "timestamp": "2025-12-13T10:41:26.056113+00:00", "meta": {"OBJECT_NAME": "FENGYUN 1C DEB", "OBJECT_ID": "1999-025ESD", "EPOCH": "2025-12-12T02:19:24.657024", "MEAN_MOTION": 14.00170725, "ECCENTRICITY": 0.0386465, "INCLINATION": 98.434, "RA_OF_ASC_NODE": 296.3495, "ARG_OF_PERICENTER": 10.8221, "MEAN_ANOMALY": 350.0969, "EPHEMERIS_TYPE": 0, "CLASSIFICATION_TYPE": "U", "NORAD_CAT_ID": 38494, "ELEMENT_SET_NO": 999, "REV_AT_EPOCH": 7145, "BSTAR": 0.0077884724, "MEAN_MOTION_DOT": 0.00022035, "MEAN_MOTION_DDOT": 0}, "tle": {"line1": "1 38494U 99025ESD 25346.09681316  .00022035  00000+0  77885-2 0  9995", "line2": "2 38494  98.4340 296.3495 0386465  10.8221 350.0969 14.00170725 71458"}}, "geometry": {"type": "Point", "coordinates": [-52.985159235934304, -47.80071602105479]}}, {"type": "Feature", "properties": {"norad_id": 38495, "name": "FENGYUN 1C DEB", "group": "fengyun-1c-debris", "lat": -0.16189559921479332, "lon": 3.7796739620370885, "alt_km": 1138.968329002454, "timestamp": "2025-12-13T10:41:26.056124+00:00", "meta": {"OBJECT_NAME": "FENGYUN 1C DEB", "OBJECT_ID": "1999-025ESE", "EPOCH": "2025-12-02T06:20:41.771904", "MEAN_MOTION": 13.69106573, "ECCENTRICITY": 0.0252581, "INCLINATION": 99.1709, "RA_OF_ASC_NODE": 353.1036, "ARG_OF_PERICENTER": 165.9119, "MEAN_ANOMALY": 194.9245, "EPHEMERIS_TYPE": 0, "CLASSIFICATION_TYPE": "U", "NORAD_CAT_ID": 38495, "ELEMENT_SET_NO": 999, "REV_AT_EPOCH": 60969, "BSTAR": 0.0025866, "MEAN_MOTION_DOT": 2.759e-05, "MEAN_MOTION_DDOT": 0}, "tle": {"line1": "1 38495U 99025ESE 25336.26437236  .00002759  00000+0  25866-2 0  9997", "line2": "2 38495  99.1709 353.1036 0252581 165.9119 194.9245 13.69106573609697"}}, "geometry": {"type": "Point", "coordinates": [3.7796739620370885, -0.16189559921479332]}}, {"type": "Feature", "properties": {"norad_id": 38496, "name": "FENGYUN 1C DEB", "group": "fengyun-1c-debris", "lat": -47.59778958291288, "lon": 167.43657466342225, "alt_km": 906.5976846721578, "timestamp": "2025-12-13T10:41:26.056134+00:00", "meta": {"OBJECT_NAME": "FENGYUN 1C DEB", "OBJECT_ID": "1999-025ESF", "EPOCH": "2025-12-12T06:21:34.809408", "MEAN_MOTION": 14.09997011, "ECCENTRICITY": 0.00778076, "INCLINATION": 98.7646, "RA_OF_ASC_NODE": 356.0127, "ARG_OF_PERICENTER": 7.8363, "MEAN_ANOMALY": 352.4004, "EPHEMERIS_TYPE": 0, "CLASSIFICATION_TYPE": "U", "NORAD_CAT_ID": 38496, "ELEMENT_SET_NO": 999, "REV_AT_EPOCH": 81014, "BSTAR": 0.001223388, "MEAN_MOTION_DOT": 2.177e-05, "MEAN_MOTION_DDOT": 0}, "tle": {"line1": "1 38496U 99025ESF 25346.26498622  .00002177  00000+0  12234-2 0  9994", "line2": "2 38496  98.7646 356.0127 0077807   7.8363 352.4004 14.09997011810145"}}, "geometry": {"type": "Point", "coordinates": [167.43657466342225, -47.59778958291288]}}, {"type": "Feature", "properties": {"norad_id": 38498, "name": "FENGYUN 1C DEB", "group": "fengyun-1c-debris", "lat": 54.10365975874329, "lon": -158.6997207589171, "alt_km": 1005.641092429204, "timestamp": "2025-12-13T10:41:26.056145+00:00", "meta": {"OBJECT_NAME": "FENGYUN 1C DEB", "OBJECT_ID": "1999-025ESH", "EPOCH": "2025-12-12T19:17:29.257440", "MEAN_MOTION": 12.96613465, "ECCENTRICITY": 0.05559349, "INCLINATION": 99.699, "RA_OF_ASC_NODE": 7.0616, "ARG_OF_PERICENTER": 72.0165, "MEAN_ANOMALY": 294.0708, "EPHEMERIS_TYPE": 0, "CLASSIFICATION_TYPE": "U", "NORAD_CAT_ID": 38498, "ELEMENT_SET_NO": 999, "REV_AT_EPOCH": 53744, "BSTAR": 0.0024290921, "MEAN_MOTION_DOT": 1.385e-05, "MEAN_MOTION_DDOT": 0}, "tle": {"line1": "1 38498U 99025ESH 25346.80381085  .00001385  00000+0  24291-2 0  9996", "line2": "2 38498  99.6990   7.0616 0555934  72.0165 294.0708 12.96613465537444"}}, "geometry": {"type": "Point", "coordinates": [-158.6997207589171, 54.10365975874329]}}, {"type": "Feature", "properties": {"norad_id": 38510, "name": "FENGYUN 1C DEB", "group": "fengyun-1c-debris", "lat": -24.027242206222976, "lon": 172.627966337344, "alt_km": 813.3382442147085, "timestamp": "2025-12-13T10:41:26.056156+00:00", "meta": {"OBJECT_NAME": "FENGYUN 1C DEB", "OBJECT_ID": "1999-025ESV", "EPOCH": "2025-12-07T07:36:41.393664", "MEAN_MOTION": 14.13304798, "ECCENTRICITY": 0.00984571, "INCLINATION": 98.6019, "RA_OF_ASC_NODE": 350.6048, "ARG_OF_PERICENTER": 165.571, "MEAN_ANOMALY": 194.8311, "EPHEMERIS_TYPE": 0, "CLASSIFICATION_TYPE": "U", "NORAD_CAT_ID": 38510, "ELEMENT_SET_NO": 999, "REV_AT_EPOCH": 88593, "BSTAR": 0.00096053844, "MEAN_MOTION_DOT": 1.845e-05, "MEAN_MOTION_DDOT": 0}, "tle": {"line1": "1 38510U 99025ESV 25341.31714576  .00001845  00000+0  96054-3 0  9995", "line2": "2 38510  98.6019 350.6048 0098457 165.5710 194.8311 14.13304798885936"}}, "geometry": {"type": "Point", "coordinates": [172.627966337344, -24.027242206222976]}}, {"type": "Feature", "properties": {"norad_id": 38512, "name": "FENGYUN 1C DEB", "group": "fengyun-1c-debris", "lat": 32.83705711240571, "lon": 54.640685955874304, "alt_km": 860.281629867939, "timestamp": "2025-12-13T10:41:26.056166+00:00", "meta": {"OBJECT_NAME": "FENGYUN 1C DEB", "OBJECT_ID": "1999-025ESX", "EPOCH": "2025-12-10T03:21:08.986176", "MEAN_MOTION": 13.7397021, "ECCENTRICITY": 0.02264501, "INCLINATION": 98.3804, "RA_OF_ASC_NODE": 226.2794, "ARG_OF_PERICENTER": 112.1956, "MEAN_ANOMALY": 250.339, "EPHEMERIS_TYPE": 0, "CLASSIFICATION_TYPE": "U", "NORAD_CAT_ID": 38512, "ELEMENT_SET_NO": 999, "REV_AT_EPOCH": 59534, "BSTAR": 0.0014232555, "MEAN_MOTION_DOT": 1.573e-05, "MEAN_MOTION_DDOT": 0}, "tle": {"line1": "1 38512U 99025ESX 25344.13968734  .00001573  00000+0  14233-2 0  9993", "line2": "2 38512  98.3804 226.2794 0226450 112.1956 250.3390 13.73970210595340"}}, "geometry": {"type": "Point", "coordinates": [54.640685955874304, 32.83705711240571]}}, {"type": "Feature", "properties": {"norad_id": 38514, "name": "FENGYUN 1C DEB", "group": "fengyun-1c-debris", "lat": -28.127359953154066, "lon": 21.291643537209083, "alt_km": 694.5043542144322, "timestamp": "2025-12-13T10:41:26.056176+00:00", "meta": {"OBJECT_NAME": "FENGYUN 1C DEB", "OBJECT_ID": "1999-025ESZ", "EPOCH": "2025-12-10T08:11:05.246880", "MEAN_MOTION": 14.15607976, "ECCENTRICITY": 0.02713018, "INCLINATION": 98.0508, "RA_OF_ASC_NODE": 14.1431, "ARG_OF_PERICENTER": 21.2008, "MEAN_ANOMALY": 340.016, "EPHEMERIS_TYPE": 0, "CLASSIFICATION_TYPE": "U", "NORAD_CAT_ID": 38514, "ELEMENT_SET_NO": 999, "REV_AT_EPOCH": 87962, "BSTAR": 0.0087950247, "MEAN_MOTION_DOT": 0.00024655, "MEAN_MOTION_DDOT": 0}, "tle": {"line1": "1 38514U 99025ESZ 25344.34103295  .00024655  00000+0  87950-2 0  9993", "line2": "2 38514  98.0508  14.1431 0271301  21.2008 340.0160 14.15607976879626"}}, "geometry": {"type": "Point", "coordinates": [21.291643537209083, -28.127359953154066]}}]}